NORAD_CAT_ID,OBJECT_NAME,OBJECT_TYPE,EPOCH,MEAN_MOTION,ECCENTRICITY,INCLINATION,RA_OF_ASC_NODE,ARG_OF_PERICENTER,MEAN_ANOMALY,BSTAR,MEAN_MOTION_DOT,MEAN_MOTION_DDOT,TLE_LINE0,TLE_LINE1,TLE_LINE2,SEMIMAJOR_AXIS,PERIOD,APOGEE,PERIGEE,DECAYED
52603.0,STARLINK-4016,PAYLOAD,2024-04-03 17:20:29,15.08841329,0.0001321,53.218,203.8539,94.1672,265.9471,0.00011221,1.498e-05,0.0,0 STARLINK-4016,1 52603U 22052F   24094.72256190  .00001498  00000-0  11221-3 0  9990,2 52603  53.2180 203.8539 0001321  94.1672 265.9471 15.08841329105239,6917.876,95.437,540.655,538.827,0.0
52603.0,STARLINK-4016,PAYLOAD,2024-04-04 12:25:08,15.08808343,0.0001182,53.2178,200.2871,102.1442,257.9683,0.00033188,4.993e-05,0.0,0 STARLINK-4016,1 52603U 22052F   24095.51745565  .00004993  00000-0  33188-3 0  9996,2 52603  53.2178 200.2871 0001182 102.1442 257.9683 15.08808343104926,6917.977,95.44,540.66,539.024,0.0
52603.0,STARLINK-4016,PAYLOAD,2024-04-04 14:00:31,15.08824182,0.000122,53.2169,199.9867,95.587,264.5261,4.8923e-05,4.91e-06,0.0,0 STARLINK-4016,1 52603U 22052F   24095.58369612  .00000491  00000-0  48923-4 0  9991,2 52603  53.2169 199.9867 0001220  95.5870 264.5261 15.08824182105362,6917.929,95.439,540.638,538.95,0.0
52603.0,STARLINK-4016,PAYLOAD,2024-04-04 23:32:49,15.0883632,0.0001274,53.2176,198.1999,88.7134,271.4005,5.0151e-05,5.1e-06,0.0,0 STARLINK-4016,1 52603U 22052F   24095.98112971  .00000510  00000-0  50151-4 0  9997,2 52603  53.2176 198.1999 0001274  88.7134 271.4005 15.08836320104991,6917.892,95.438,540.638,538.875,0.0
52603.0,STARLINK-4016,PAYLOAD,2024-04-05 13:51:16,15.0885399,0.0001345,53.2172,195.5264,96.0564,264.0581,0.00011785,1.589e-05,0.0,0 STARLINK-4016,1 52603U 22052F   24096.57727826  .00001589  00000-0  11785-3 0  9990,2 52603  53.2172 195.5264 0001345  96.0564 264.0581 15.08853990105519,6917.838,95.437,540.633,538.772,0.0
52603.0,STARLINK-4016,PAYLOAD,2024-04-05 15:26:40,15.08847922,0.0001264,53.2165,195.2293,96.9642,263.1494,6.8173e-05,7.97e-06,0.0,0 STARLINK-4016,1 52603U 22052F   24096.64352269  .00000797  00000-0  68173-4 0  9997,2 52603  53.2165 195.2293 0001264  96.9642 263.1494 15.08847922105090,6917.856,95.437,540.596,538.847,0.0
52603.0,STARLINK-4016,PAYLOAD,2024-04-06 05:45:09,15.08837264,0.0001187,53.2177,192.5506,84.5075,275.6053,4.3373e-05,4.02e-06,0.0,0 STARLINK-4016,1 52603U 22052F   24097.23969078  .00000402  00000-0  43373-4 0  9993,2 52603  53.2177 192.5506 0001187  84.5075 275.6053 15.08837264105184,6917.889,95.438,540.575,538.933,0.0
52603.0,STARLINK-4016,PAYLOAD,2024-04-07 08:46:43,15.0882958,0.0001387,53.2164,187.4969,87.8415,272.2736,8.6835e-07,-2.74e-06,0.0,0 STARLINK-4016,1 52603U 22052F   24098.36577835 -.00000274  00000-0  86835-6 0  9994,2 52603  53.2164 187.4969 0001387  87.8415 272.2736 15.08829580105354,6917.912,95.438,540.737,538.818,0.0
52603.0,STARLINK-4016,PAYLOAD,2024-04-07 11:57:29,15.08829728,0.0001152,53.2168,186.9031,90.0504,270.0621,-1.8664e-06,-3.17e-06,0.0,0 STARLINK-4016,1 52603U 22052F   24098.49825884 -.00000317  00000-0 -18664-5 0  9991,2 52603  53.2168 186.9031 0001152  90.0504 270.0621 15.08829728105800,6917.912,95.438,540.574,538.98,0.0
52603.0,STARLINK-4016,PAYLOAD,2024-04-07 23:05:10,15.08847331,0.0001272,53.2158,184.8209,93.389,266.7247,-8.4045e-05,-1.625e-05,0.0,0 STARLINK-4016,1 52603U 22052F   24098.96193044 -.00001625  00000-0 -84045-4 0  9997,2 52603  53.2158 184.8209 0001272  93.3890 266.7247 15.08847331105446,6917.858,95.437,540.603,538.843,0.0
52603.0,STARLINK-4016,PAYLOAD,2024-04-08 11:48:16,15.08831462,0.0001409,53.2155,182.4398,97.7098,262.4054,-5.2426e-05,-1.122e-05,0.0,0 STARLINK-4016,1 52603U 22052F   24099.49186200 -.00001122  00000-0 -52426-4 0  9992,2 52603  53.2155 182.4398 0001409  97.7098 262.4054 15.08831462105522,6917.906,95.438,540.746,538.797,0.0
52603.0,STARLINK-4016,PAYLOAD,2024-04-08 22:55:58,15.0883298,0.0001718,53.2155,180.3594,94.3804,265.7384,5.8697e-05,6.46e-06,0.0,0 STARLINK-4016,1 52603U 22052F   24099.95553870  .00000646  00000-0  58697-4 0  9998,2 52603  53.2155 180.3594 0001718  94.3804 265.7384 15.08832980106022,6917.902,95.438,540.955,538.578,0.0
52603.0,STARLINK-4016,PAYLOAD,2024-04-09 05:17:30,15.08838275,0.0001274,53.2166,179.1707,93.7236,266.3902,0.00011865,1.601e-05,0.0,0 STARLINK-4016,1 52603U 22052F   24100.22049256  .00001601  00000-0  11865-3 0  9996,2 52603  53.2166 179.1707 0001274  93.7236 266.3902 15.08838275105637,6917.886,95.438,540.632,538.869,0.0
52603.0,STARLINK-4016,PAYLOAD,2024-04-09 11:39:03,15.08828356,0.0001524,53.2156,177.9799,98.8164,261.3001,0.00034852,5.261e-05,0.0,0 STARLINK-4016,1 52603U 22052F   24100.48545356  .00005261  00000-0  34852-3 0  9993,2 52603  53.2156 177.9799 0001524  98.8164 261.3001 15.08828356106104,6917.916,95.438,540.835,538.727,0.0
52603.0,STARLINK-4016,PAYLOAD,2024-04-10 11:29:49,15.08839434,0.0001393,53.2161,173.5199,96.9943,263.1207,0.00011911,1.608e-05,0.0,0 STARLINK-4016,1 52603U 22052F   24101.47904941  .00001608  00000-0  11911-3 0  9994,2 52603  53.2161 173.5199 0001393  96.9943 263.1207 15.08839434105829,6917.882,95.438,540.711,538.783,0.0
52603.0,STARLINK-4016,PAYLOAD,2024-04-11 04:59:05,15.08837444,0.0001391,53.2167,170.249,97.2195,262.8955,-7.9247e-05,-1.549e-05,0.0,0 STARLINK-4016,1 52603U 22052F   24102.20769738 -.00001549  00000-0 -79247-4 0  9992,2 52603  53.2167 170.2490 0001391  97.2195 262.8955 15.08837444105931,6917.888,95.438,540.715,538.791,0.0
52603.0,STARLINK-4016,PAYLOAD,2024-04-11 11:20:38,15.08821522,0.0001305,53.2165,169.0602,85.8495,274.2647,-0.00019884,-3.449e-05,0.0,0 STARLINK-4016,1 52603U 22052F   24102.47267252 -.00003449  00000-0 -19884-3 0  9996,2 52603  53.2165 169.0602 0001305  85.8495 274.2647 15.08821522105970,6917.937,95.439,540.705,538.899,0.0
52603.0,STARLINK-4016,PAYLOAD,2024-04-11 20:52:57,15.0882855,0.0001269,53.2168,167.2751,84.0488,276.0648,-0.00012284,-2.242e-05,0.0,0 STARLINK-4016,1 52603U 22052F   24102.87010856 -.00002242  00000-0 -12284-3 0  9993,2 52603  53.2168 167.2751 0001269  84.0488 276.0648 15.08828550106037,6917.915,95.438,540.658,538.903,0.0
52603.0,STARLINK-4016,PAYLOAD,2024-04-12 11:11:25,15.08835887,0.0001296,53.2163,164.5994,84.4077,275.7063,1.7039e-05,-1.7e-07,0.0,0 STARLINK-4016,1 52603U 22052F   24103.46626231 -.00000017  00000-0  17039-4 0  9990,2 52603  53.2163 164.5994 0001296  84.4077 275.7063 15.08835887106127,6917.893,95.438,540.655,538.861,0.0
52603.0,STARLINK-4016,PAYLOAD,2024-04-13 11:02:11,15.0883442,0.0001416,53.2165,160.1391,79.7378,280.3774,0.00025665,3.798e-05,0.0,0 STARLINK-4016,1 52603U 22052F   24104.45986043  .00003798  00000-0  25665-3 0  9991,2 52603  53.2165 160.1391 0001416  79.7378 280.3774 15.08834420106704,6917.897,95.438,540.742,538.783,0.0
52603.0,STARLINK-4016,PAYLOAD,2024-04-14 10:52:59,15.08845495,0.0001533,53.217,155.6772,78.6879,281.4285,6.0723e-05,6.79e-06,0.0,0 STARLINK-4016,1 52603U 22052F   24105.45346160  .00000679  00000-0  60723-4 0  9992,2 52603  53.2170 155.6772 0001533  78.6879 281.4285 15.08845495106428,6917.864,95.437,540.789,538.668,0.0
52603.0,STARLINK-4016,PAYLOAD,2024-04-15 10:43:45,15.08850124,0.0001641,53.2174,151.2177,76.8158,283.3017,4.5605e-05,4.38e-06,0.0,0 STARLINK-4016,1 52603U 22052F   24106.44705482  .00000438  00000-0  45605-4 0  9993,2 52603  53.2174 151.2177 0001641  76.8158 283.3017 15.08850124107007,6917.849,95.437,540.85,538.579,0.0
52603.0,STARLINK-4016,PAYLOAD,2024-04-15 20:16:03,15.08852771,0.0001452,53.2172,149.4333,91.4175,268.6984,9.0796e-05,1.158e-05,0.0,0 STARLINK-4016,1 52603U 22052F   24106.84448813  .00001158  00000-0  90796-4 0  9990,2 52603  53.2172 149.4333 0001452  91.4175 268.6984 15.08852771106637,6917.841,95.437,540.711,538.702,0.0
52603.0,STARLINK-4016,PAYLOAD,2024-04-16 08:59:09,15.08845193,0.0001432,53.2171,147.055,113.86,246.2542,2.8155e-05,1.6e-06,0.0,0 STARLINK-4016,1 52603U 22052F   24107.37441372  .00000160  00000-0  28155-4 0  9994,2 52603  53.2171 147.0550 0001432 113.8600 246.2542 15.08845193106712,6917.865,95.437,540.72,538.739,0.0
52603.0,STARLINK-4016,PAYLOAD,2024-04-17 02:28:24,15.08840956,0.0001374,53.2171,143.7819,116.3329,243.7804,-1.1612e-05,-4.73e-06,0.0,0 STARLINK-4016,1 52603U 22052F   24108.10305706 -.00000473  00000-0 -11612-4 0  9995,2 52603  53.2171 143.7819 0001374 116.3329 243.7804 15.08840956106821,6917.877,95.437,540.693,538.792,0.0
52603.0,STARLINK-4016,PAYLOAD,2024-04-17 08:49:56,15.08848654,0.0001374,53.2162,142.5943,94.1213,265.9936,0.00011342,1.518e-05,0.0,0 STARLINK-4016,1 52603U 22052F   24108.36801005  .00001518  00000-0  11342-3 0  9994,2 52603  53.2162 142.5943 0001374  94.1213 265.9936 15.08848654106860,6917.854,95.437,540.669,538.768,0.0
52603.0,STARLINK-4016,PAYLOAD,2024-04-18 02:19:10,15.088393,0.0001461,53.2159,139.3242,98.3858,261.73,0.00015598,2.195e-05,0.0,0 STARLINK-4016,1 52603U 22052F   24109.09665350  .00002195  00000-0  15598-3 0  9995,2 52603  53.2159 139.3242 0001461  98.3858 261.7300 15.08839300106979,6917.883,95.438,540.758,538.737,0.0
52603.0,STARLINK-4016,PAYLOAD,2024-04-18 07:05:21,15.08825242,0.000117,53.2154,138.4307,95.5127,264.5998,-4.7217e-05,-1.039e-05,0.0,0 STARLINK-4016,1 52603U 22052F   24109.29538427 -.00001039  00000-0 -47217-4 0  9993,2 52603  53.2154 138.4307 0001170  95.5127 264.5998 15.08825242107000,6917.925,95.438,540.6,538.981,0.0
52603.0,STARLINK-4016,PAYLOAD,2024-04-19 02:09:58,15.0883742,0.0001027,53.2155,134.8576,101.354,258.7567,-6.5746e-05,-1.334e-05,0.0,0 STARLINK-4016,1 52603U 22052F   24110.09026209 -.00001334  00000-0 -65746-4 0  9998,2 52603  53.2155 134.8576 0001027 101.3540 258.7567 15.08837420107126,6917.888,95.438,540.464,539.043,0.0
52603.0,STARLINK-4016,PAYLOAD,2024-04-19 06:56:07,15.08841904,0.0001218,53.2154,133.967,104.0001,256.1126,4.1321e-05,3.7e-06,0.0,0 STARLINK-4016,1 52603U 22052F   24110.28898008  .00000370  00000-0  41321-4 0  9993,2 52603  53.2154 133.9670 0001218 104.0001 256.1126 15.08841904107589,6917.875,95.437,540.582,538.897,0.0
